{
  "type": "FeatureCollection",
  "features": [
    {
      "type": "Feature",
      "properties": {
        "norad_id": 44334,
        "name": "EUTELSAT 7C",
        "group": "eutelsat",
        "lat": 0.005323846226607137,
        "lon": -8.180215454261116,
        "alt_km": 35782.97012135003,
        "timestamp": "2025-12-27T16:33:29.907446+00:00",
        "meta_object_name": "EUTELSAT 7C",
        "meta_object_id": "2019-034B",
        "meta_epoch": "2025-12-27T06:13:38.544096",
        "meta_mean_motion": 1.00278899,
        "meta_eccentricity": 0.0003693,
        "meta_inclination": 0.0728,
        "meta_ra_of_asc_node": 180.5045,
        "meta_arg_of_pericenter": 85.2079,
        "meta_mean_anomaly": 290.6728,
        "meta_ephemeris_type": 0,
        "meta_classification_type": "U",
        "meta_norad_cat_id": 44334,
        "meta_element_set_no": 999,
        "meta_rev_at_epoch": 511,
        "meta_bstar": 0,
        "meta_mean_motion_dot": 7.2e-07,
        "meta_mean_motion_ddot": 0,
        "tle_line1": "1 44334U 19034B   25361.25947389  .00000072  00000+0  00000+0 0  9996",
        "tle_line2": "2 44334   0.0728 180.5045 0003693  85.2079 290.6728  1.00278899  5117"
      },
      "geometry": {
        "type": "Point",
        "coordinates": [
          -8.180215454261116,
          0.005323846226607137
        ]
      }
    },
    {
      "type": "Feature",
      "properties": {
        "norad_id": 44624,
        "name": "EUTELSAT 5 WEST B",
        "group": "eutelsat",
        "lat": -0.016797249935325675,
        "lon": -20.1832360264203,
        "alt_km": 35780.40723163403,
        "timestamp": "2025-12-27T16:33:29.907458+00:00",
        "meta_object_name": "EUTELSAT 5 WEST B",
        "meta_object_id": "2019-067A",
        "meta_epoch": "2025-12-27T04:42:38.440800",
        "meta_mean_motion": 1.00271215,
        "meta_eccentricity": 0.0003275,
        "meta_inclination": 0.0618,
        "meta_ra_of_asc_node": 348.7107,
        "meta_arg_of_pericenter": 285.9376,
        "meta_mean_anomaly": 246.9417,
        "meta_ephemeris_type": 0,
        "meta_classification_type": "U",
        "meta_norad_cat_id": 44624,
        "meta_element_set_no": 999,
        "meta_rev_at_epoch": 2271,
        "meta_bstar": 0,
        "meta_mean_motion_dot": -2e-07,
        "meta_mean_motion_ddot": 0,
        "tle_line1": "1 44624U 19067A   25361.19627825 -.00000020  00000+0  00000+0 0  9991",
        "tle_line2": "2 44624   0.0618 348.7107 0003275 285.9376 246.9417  1.00271215 22718"
      },
      "geometry": {
        "type": "Point",
        "coordinates": [
          -20.1832360264203,
          -0.016797249935325675
        ]
      }
    },
    {
      "type": "Feature",
      "properties": {
        "norad_id": 45027,
        "name": "EUTELSAT KONNECT",
        "group": "eutelsat",
        "lat": -0.06796042843692393,
        "lon": -7.969238886401041,
        "alt_km": 35780.50397173105,
        "timestamp": "2025-12-27T16:33:29.907470+00:00",
        "meta_object_name": "EUTELSAT KONNECT",
        "meta_object_id": "2020-005B",
        "meta_epoch": "2025-12-27T06:13:38.544096",
        "meta_mean_motion": 1.00279327,
        "meta_eccentricity": 0.0002063,
        "meta_inclination": 0.0663,
        "meta_ra_of_asc_node": 94.1475,
        "meta_arg_of_pericenter": 191.175,
        "meta_mean_anomaly": 271.2936,
        "meta_ephemeris_type": 0,
        "meta_classification_type": "U",
        "meta_norad_cat_id": 45027,
        "meta_element_set_no": 999,
        "meta_rev_at_epoch": 2261,
        "meta_bstar": 0,
        "meta_mean_motion_dot": 7.3e-07,
        "meta_mean_motion_ddot": 0,
        "tle_line1": "1 45027U 20005B   25361.25947389  .00000073  00000+0  00000+0 0  9997",
        "tle_line2": "2 45027   0.0663  94.1475 0002063 191.1750 271.2936  1.00279327 22612"
      },
      "geometry": {
        "type": "Point",
        "coordinates": [
          -7.969238886401041,
          -0.06796042843692393
        ]
      }
    },
    {
      "type": "Feature",
      "properties": {
        "norad_id": 49056,
        "name": "EUTELSAT QUANTUM",
        "group": "eutelsat",
        "lat": 0.004422842598911697,
        "lon": 32.52379320405902,
        "alt_km": 35791.15016784194,
        "timestamp": "2025-12-27T16:33:29.907481+00:00",
        "meta_object_name": "EUTELSAT QUANTUM",
        "meta_object_id": "2021-069B",
        "meta_epoch": "2025-12-27T11:30:58.854240",
        "meta_mean_motion": 1.00271756,
        "meta_eccentricity": 0.0003672,
        "meta_inclination": 0.0155,
        "meta_ra_of_asc_node": 35.3932,
        "meta_arg_of_pericenter": 248.088,
        "meta_mean_anomaly": 33.1736,
        "meta_ephemeris_type": 0,
        "meta_classification_type": "U",
        "meta_norad_cat_id": 49056,
        "meta_element_set_no": 999,
        "meta_rev_at_epoch": 1620,
        "meta_bstar": 0,
        "meta_mean_motion_dot": 1.48e-06,
        "meta_mean_motion_ddot": 0,
        "tle_line1": "1 49056U 21069B   25361.47984785  .00000148  00000+0  00000+0 0  9992",
        "tle_line2": "2 49056   0.0155  35.3932 0003672 248.0880  33.1736  1.00271756 16201"
      },
      "geometry": {
        "type": "Point",
        "coordinates": [
          32.52379320405902,
          0.004422842598911697
        ]
      }
    },
    {
      "type": "Feature",
      "properties": {
        "norad_id": 53765,
        "name": "EUTELSAT KONNECT VHTS",
        "group": "eutelsat",
        "lat": -0.060231694545020906,
        "lon": -12.484878188048318,
        "alt_km": 35788.351616735774,
        "timestamp": "2025-12-27T16:33:29.907493+00:00",
        "meta_object_name": "EUTELSAT KONNECT VHTS",
        "meta_object_id": "2022-110A",
        "meta_epoch": "2025-12-26T23:19:08.450112",
        "meta_mean_motion": 1.00268307,
        "meta_eccentricity": 0.00027888,
        "meta_inclination": 0.0593,
        "meta_ra_of_asc_node": 98.4997,
        "meta_arg_of_pericenter": 152.36,
        "meta_mean_anomaly": 197.3421,
        "meta_ephemeris_type": 0,
        "meta_classification_type": "U",
        "meta_norad_cat_id": 53765,
        "meta_element_set_no": 999,
        "meta_rev_at_epoch": 510,
        "meta_bstar": 0,
        "meta_mean_motion_dot": 3.9e-07,
        "meta_mean_motion_ddot": 0,
        "tle_line1": "1 53765U 22110A   25360.97162558  .00000039  00000+0  00000+0 0  9991",
        "tle_line2": "2 53765   0.0593  98.4997 0002788 152.3600 197.3421  1.00268307  5103"
      },
      "geometry": {
        "type": "Point",
        "coordinates": [
          -12.484878188048318,
          -0.060231694545020906
        ]
      }
    },
    {
      "type": "Feature",
      "properties": {
        "norad_id": 54048,
        "name": "EUTELSAT HOTBIRD 13F",
        "group": "eutelsat",
        "lat": 0.04140020548249053,
        "lon": -2.232933894351325,
        "alt_km": 35776.284049312475,
        "timestamp": "2025-12-27T16:33:29.907505+00:00",
        "meta_object_name": "EUTELSAT HOTBIRD 13F",
        "meta_object_id": "2022-134A",
        "meta_epoch": "2025-12-26T22:46:38.586144",
        "meta_mean_motion": 1.00271009,
        "meta_eccentricity": 0.00023679,
        "meta_inclination": 0.0512,
        "meta_ra_of_asc_node": 291.2358,
        "meta_arg_of_pericenter": 65.5103,
        "meta_mean_anomaly": 93.5854,
        "meta_ephemeris_type": 0,
        "meta_classification_type": "U",
        "meta_norad_cat_id": 54048,
        "meta_element_set_no": 999,
        "meta_rev_at_epoch": 1165,
        "meta_bstar": 0,
        "meta_mean_motion_dot": 1.09e-06,
        "meta_mean_motion_ddot": 0,
        "tle_line1": "1 54048U 22134A   25360.94905771  .00000109  00000+0  00000+0 0  9999",
        "tle_line2": "2 54048   0.0512 291.2358 0002367  65.5103  93.5854  1.00271009 11656"
      },
      "geometry": {
        "type": "Point",
        "coordinates": [
          -2.232933894351325,
          0.04140020548249053
        ]
      }
    },
    {
      "type": "Feature",
      "properties": {
        "norad_id": 54225,
        "name": "EUTELSAT HOTBIRD 13G",
        "group": "eutelsat",
        "lat": 0.03215736146454786,
        "lon": -2.2768323174974383,
        "alt_km": 35797.75148199341,
        "timestamp": "2025-12-27T16:33:29.907517+00:00",
        "meta_object_name": "EUTELSAT HOTBIRD 13G",
        "meta_object_id": "2022-146A",
        "meta_epoch": "2025-12-26T22:46:38.586144",
        "meta_mean_motion": 1.00258057,
        "meta_eccentricity": 0.00022142,
        "meta_inclination": 0.0501,
        "meta_ra_of_asc_node": 221.1292,
        "meta_arg_of_pericenter": 348.4298,
        "meta_mean_anomaly": 240.7501,
        "meta_ephemeris_type": 0,
        "meta_classification_type": "U",
        "meta_norad_cat_id": 54225,
        "meta_element_set_no": 999,
        "meta_rev_at_epoch": 573,
        "meta_bstar": 0,
        "meta_mean_motion_dot": 1.07e-06,
        "meta_mean_motion_ddot": 0,
        "tle_line1": "1 54225U 22146A   25360.94905771  .00000107  00000+0  00000+0 0  9997",
        "tle_line2": "2 54225   0.0501 221.1292 0002214 348.4298 240.7501  1.00258057  5734"
      },
      "geometry": {
        "type": "Point",
        "coordinates": [
          -2.2768323174974383,
          0.03215736146454786
        ]
      }
    }
  ]
}